{
  "type": "FeatureCollection",
  "features": [
    {
      "type": "Feature",
      "properties": {
        "norad_id": 34022,
        "name": "COSMOS 2251 DEB",
        "group": "cosmos-2251-debris",
        "lat": 73.90002139040828,
        "lon": 24.18003512946652,
        "alt_km": 757.1496521208073,
        "timestamp": "2025-12-04T07:39:36.525385+00:00",
        "meta_object_name": "COSMOS 2251 DEB",
        "meta_object_id": "1993-036HH",
        "meta_epoch": "2025-12-03T21:29:44.193696",
        "meta_mean_motion": 14.38940872,
        "meta_eccentricity": 0.00223869,
        "meta_inclination": 74.0537,
        "meta_ra_of_asc_node": 287.0907,
        "meta_arg_of_pericenter": 353.6869,
        "meta_mean_anomaly": 65.1918,
        "meta_ephemeris_type": 0,
        "meta_classification_type": "U",
        "meta_norad_cat_id": 34022,
        "meta_element_set_no": 999,
        "meta_rev_at_epoch": 88068,
        "meta_bstar": 0.00046421758,
        "meta_mean_motion_dot": 1.409e-05,
        "meta_mean_motion_ddot": 0,
        "tle_line1": "1 34022U 93036HH  25337.89565039  .00001409  00000+0  46422-3 0  9991",
        "tle_line2": "2 34022  74.0537 287.0907 0022386 353.6869  65.1918 14.38940872880689"
      },
      "geometry": {
        "type": "Point",
        "coordinates": [
          24.18003512946652,
          73.90002139040828
        ]
      }
    },
    {
      "type": "Feature",
      "properties": {
        "norad_id": 34023,
        "name": "COSMOS 2251 DEB",
        "group": "cosmos-2251-debris",
        "lat": -35.545255423845475,
        "lon": -104.48392396333391,
        "alt_km": 753.01437183698,
        "timestamp": "2025-12-04T07:39:36.525394+00:00",
        "meta_object_name": "COSMOS 2251 DEB",
        "meta_object_id": "1993-036HJ",
        "meta_epoch": "2025-12-03T05:51:38.172384",
        "meta_mean_motion": 14.40524866,
        "meta_eccentricity": 0.0018049,
        "meta_inclination": 74.0248,
        "meta_ra_of_asc_node": 269.315,
        "meta_arg_of_pericenter": 6.5951,
        "meta_mean_anomaly": 143.9398,
        "meta_ephemeris_type": 0,
        "meta_classification_type": "U",
        "meta_norad_cat_id": 34023,
        "meta_element_set_no": 999,
        "meta_rev_at_epoch": 88077,
        "meta_bstar": 0.00054995,
        "meta_mean_motion_dot": 1.728e-05,
        "meta_mean_motion_ddot": 0,
        "tle_line1": "1 34023U 93036HJ  25337.24419181  .00001728  00000+0  54995-3 0  9995",
        "tle_line2": "2 34023  74.0248 269.3150 0018049   6.5951 143.9398 14.40524866880770"
      },
      "geometry": {
        "type": "Point",
        "coordinates": [
          -104.48392396333391,
          -35.545255423845475
        ]
      }
    },
    {
      "type": "Feature",
      "properties": {
        "norad_id": 34024,
        "name": "COSMOS 2251 DEB",
        "group": "cosmos-2251-debris",
        "lat": 48.31881500688736,
        "lon": 132.68818505007056,
        "alt_km": 772.7942440183006,
        "timestamp": "2025-12-04T07:39:36.525404+00:00",
        "meta_object_name": "COSMOS 2251 DEB",
        "meta_object_id": "1993-036HK",
        "meta_epoch": "2025-12-03T18:30:19.565856",
        "meta_mean_motion": 14.35379381,
        "meta_eccentricity": 0.00206241,
        "meta_inclination": 74.0462,
        "meta_ra_of_asc_node": 332.4325,
        "meta_arg_of_pericenter": 25.5346,
        "meta_mean_anomaly": 152.0381,
        "meta_ephemeris_type": 0,
        "meta_classification_type": "U",
        "meta_norad_cat_id": 34024,
        "meta_element_set_no": 999,
        "meta_rev_at_epoch": 87895,
        "meta_bstar": 0.00029056085,
        "meta_mean_motion_dot": 8.1e-06,
        "meta_mean_motion_ddot": 0,
        "tle_line1": "1 34024U 93036HK  25337.77105979  .00000810  00000+0  29056-3 0  9992",
        "tle_line2": "2 34024  74.0462 332.4325 0020624  25.5346 152.0381 14.35379381878950"
      },
      "geometry": {
        "type": "Point",
        "coordinates": [
          132.68818505007056,
          48.31881500688736
        ]
      }
    },
    {
      "type": "Feature",
      "properties": {
        "norad_id": 34026,
        "name": "COSMOS 2251 DEB",
        "group": "cosmos-2251-debris",
        "lat": -17.96893180097266,
        "lon": -14.131823227811067,
        "alt_km": 1139.295000595016,
        "timestamp": "2025-12-04T07:39:36.525413+00:00",
        "meta_object_name": "COSMOS 2251 DEB",
        "meta_object_id": "1993-036HM",
        "meta_epoch": "2025-12-03T11:29:01.814208",
        "meta_mean_motion": 13.65279023,
        "meta_eccentricity": 0.03512242,
        "meta_inclination": 73.7673,
        "meta_ra_of_asc_node": 352.6869,
        "meta_arg_of_pericenter": 224.0439,
        "meta_mean_anomaly": 303.3294,
        "meta_ephemeris_type": 0,
        "meta_classification_type": "U",
        "meta_norad_cat_id": 34026,
        "meta_element_set_no": 999,
        "meta_rev_at_epoch": 83405,
        "meta_bstar": 0.0013492976,
        "meta_mean_motion_dot": 1.647e-05,
        "meta_mean_motion_ddot": 0,
        "tle_line1": "1 34026U 93036HM  25337.47849322  .00001647  00000+0  13493-2 0  9994",
        "tle_line2": "2 34026  73.7673 352.6869 0351224 224.0439 303.3294 13.65279023834052"
      },
      "geometry": {
        "type": "Point",
        "coordinates": [
          -14.131823227811067,
          -17.96893180097266
        ]
      }
    },
    {
      "type": "Feature",
      "properties": {
        "norad_id": 34028,
        "name": "COSMOS 2251 DEB",
        "group": "cosmos-2251-debris",
        "lat": -73.7531618035991,
        "lon": -82.63557110141983,
        "alt_km": 1455.044186996147,
        "timestamp": "2025-12-04T07:39:36.525423+00:00",
        "meta_object_name": "COSMOS 2251 DEB",
        "meta_object_id": "1993-036HP",
        "meta_epoch": "2025-12-03T20:17:11.546592",
        "meta_mean_motion": 13.20615691,
        "meta_eccentricity": 0.05440939,
        "meta_inclination": 73.8836,
        "meta_ra_of_asc_node": 0.8871,
        "meta_arg_of_pericenter": 140.2533,
        "meta_mean_anomaly": 34.8225,
        "meta_ephemeris_type": 0,
        "meta_classification_type": "U",
        "meta_norad_cat_id": 34028,
        "meta_element_set_no": 999,
        "meta_rev_at_epoch": 80890,
        "meta_bstar": 0.00023468753,
        "meta_mean_motion_dot": 1.9e-06,
        "meta_mean_motion_ddot": 0,
        "tle_line1": "1 34028U 93036HP  25337.84527253  .00000190  00000+0  23469-3 0  9990",
        "tle_line2": "2 34028  73.8836   0.8871 0544093 140.2533  34.8225 13.20615691808904"
      },
      "geometry": {
        "type": "Point",
        "coordinates": [
          -82.63557110141983,
          -73.7531618035991
        ]
      }
    },
    {
      "type": "Feature",
      "properties": {
        "norad_id": 34031,
        "name": "COSMOS 2251 DEB",
        "group": "cosmos-2251-debris",
        "lat": -54.423249655578815,
        "lon": 128.158349366361,
        "alt_km": 687.3463503813391,
        "timestamp": "2025-12-04T07:39:36.525432+00:00",
        "meta_object_name": "COSMOS 2251 DEB",
        "meta_object_id": "1993-036HS",
        "meta_epoch": "2025-12-03T18:49:51.728736",
        "meta_mean_motion": 14.59508576,
        "meta_eccentricity": 0.0022927,
        "meta_inclination": 74.0115,
        "meta_ra_of_asc_node": 152.8085,
        "meta_arg_of_pericenter": 273.4164,
        "meta_mean_anomaly": 101.2427,
        "meta_ephemeris_type": 0,
        "meta_classification_type": "U",
        "meta_norad_cat_id": 34031,
        "meta_element_set_no": 999,
        "meta_rev_at_epoch": 88435,
        "meta_bstar": 0.0018509622,
        "meta_mean_motion_dot": 8.801e-05,
        "meta_mean_motion_ddot": 0,
        "tle_line1": "1 34031U 93036HS  25337.78462649  .00008801  00000+0  18510-2 0  9991",
        "tle_line2": "2 34031  74.0115 152.8085 0022927 273.4164 101.2427 14.59508576884354"
      },
      "geometry": {
        "type": "Point",
        "coordinates": [
          128.158349366361,
          -54.423249655578815
        ]
      }
    },
    {
      "type": "Feature",
      "properties": {
        "norad_id": 34035,
        "name": "COSMOS 2251 DEB",
        "group": "cosmos-2251-debris",
        "lat": -19.62300849477664,
        "lon": -0.8727156917532493,
        "alt_km": 697.1787682799477,
        "timestamp": "2025-12-04T07:39:36.525441+00:00",
        "meta_object_name": "COSMOS 2251 DEB",
        "meta_object_id": "1993-036HW",
        "meta_epoch": "2025-12-03T20:26:10.938336",
        "meta_mean_motion": 14.51767856,
        "meta_eccentricity": 0.00441228,
        "meta_inclination": 74.0657,
        "meta_ra_of_asc_node": 5.8523,
        "meta_arg_of_pericenter": 9.535,
        "meta_mean_anomaly": 47.2221,
        "meta_ephemeris_type": 0,
        "meta_classification_type": "U",
        "meta_norad_cat_id": 34035,
        "meta_element_set_no": 999,
        "meta_rev_at_epoch": 87837,
        "meta_bstar": 0.0028072965,
        "meta_mean_motion_dot": 0.0001142,
        "meta_mean_motion_ddot": 0,
        "tle_line1": "1 34035U 93036HW  25337.85151549  .00011420  00000+0  28073-2 0  9993",
        "tle_line2": "2 34035  74.0657   5.8523 0044122   9.5350  47.2221 14.51767856878375"
      },
      "geometry": {
        "type": "Point",
        "coordinates": [
          -0.8727156917532493,
          -19.62300849477664
        ]
      }
    }
  ]
}